*******************************************************************************
JPL/HORIZONS               493 Griseldis (A902 RH)         2023-Sep-21 12:07:09
Rec #:     493 (+COV) Soln.date: 2023-Aug-23_22:19:17   # obs: 4735 (1902-2023)
 
IAU76/J2000 helio. ecliptic osc. elements (au, days, deg., period=Julian yrs):
 
  EPOCH=  2457598.5 ! 2016-Jul-29.00 (TDB)         Residual RMS= .23906
   EC= .1751826657537758   QR= 2.570584364430295   TP= 2458531.456496214
   OM= 357.3604343791553   W=  47.14070167580754   IN= 15.17662852101013
   A= 3.116549880440468    MA= 192.8700267414846   ADIST= 3.66251539645064
   PER= 5.50198            N= .179140157           ANGMOM= .029898545
   DAN= 2.69926            DDN= 3.42957            L= 43.48586
   B= 11.0638617           MOID= 1.60197997        TP= 2019-Feb-16.9564962140
 
Asteroid physical parameters (km, seconds, rotational period in hours):
   GM= n.a.                RAD= 20.775             ROTPER= 51.94
   H= 10.98                G= .150                 B-V= n.a.
                           ALBEDO= .081            STYP= n.a.

ASTEROID comments: 
1: soln ref.= JPL#90, OCC=0
2: source=ORB
*******************************************************************************


*******************************************************************************
Ephemeris / WWW_USER Thu Sep 21 12:07:09 2023 Pasadena, USA      / Horizons    
*******************************************************************************
Target body name: 493 Griseldis (A902 RH)         {source: JPL#90}
Center body name: Earth (399)                     {source: DE441}
Center-site name: Royal Obs.,Blackford Hill,Edinburgh
*******************************************************************************
Start time      : A.D. 1973-Jul-10 23:44:00.0000 UT      
Stop  time      : A.D. 2002-Nov-11 06:21:00.0000 UT      
Step-size       : 1440 minutes
*******************************************************************************
Target pole/equ : undefined
Target radii    : 20.775 km                                                    
Center geodetic : 356.8175, 55.9249145, .118735   {E-lon(deg),Lat(deg),Alt(km)}
Center cylindric: 356.8175,3581.83678,5259.86113  {E-lon(deg),Dxy(km),Dz(km)}
Center pole/equ : ITRF93                          {East-longitude positive}
Center radii    : 6378.137, 6378.137, 6356.752 km {Equator_a, b, pole_c}       
Target primary  : Sun
Vis. interferer : MOON (R_eq= 1737.400) km        {source: DE441}
Rel. light bend : Sun                             {source: DE441}
Rel. lght bnd GM: 1.3271E+11 km^3/s^2                                          
Small-body perts: Yes                             {source: SB441-N16}
Atmos refraction: NO (AIRLESS)
RA format       : HMS
Time format     : CAL 
Calendar mode   : Mixed Julian/Gregorian
EOP file        : eop.230919.p231213                                           
EOP coverage    : DATA-BASED 1962-JAN-20 TO 2023-SEP-19. PREDICTS-> 2023-DEC-12
Units conversion: 1 au= 149597870.700 km, c= 299792.458 km/s, 1 day= 86400.0 s 
Table cut-offs 1: Elevation (-90.0deg=NO ),Airmass (>38.000=NO), Daylight (NO )
Table cut-offs 2: Solar elongation (  0.0,180.0=NO ),Local Hour Angle( 0.0=NO )
Table cut-offs 3: RA/DEC angular rate (     0.0=NO )                           
*******************************************************************************
Initial IAU76/J2000 heliocentric ecliptic osculating elements (au, days, deg.):
  EPOCH=  2457598.5 ! 2016-Jul-29.00 (TDB)         Residual RMS= .23906        
   EC= .1751826657537758   QR= 2.570584364430295   TP= 2458531.456496214       
   OM= 357.3604343791553   W=  47.14070167580754   IN= 15.17662852101013       
  Equivalent ICRF heliocentric cartesian coordinates (au, au/d):
   X=-2.157852909571253E+00  Y=-2.286802991532773E+00  Z=-1.858858979444268E+00
  VX= 6.767338922592408E-03 VY=-3.655890634773365E-03 VZ=-2.814110225870927E-03
Asteroid physical parameters (km, seconds, rotational period in hours):        
   GM= n.a.                RAD= 20.775             ROTPER= 51.94               
   H= 10.98                G= .150                 B-V= n.a.                   
                           ALBEDO= .081            STYP= n.a.                  
******************************************************************************************************************************************************************************
 Date__(UT)__HR:MN     R.A.__(FK4/B1950)___DEC    APmag   S-brt             delta      deldot     S-O-T /r     S-T-O  Sky_motion  Sky_mot_PA  RelVel-ANG  Lun_Sky_Brt  sky_SNR
******************************************************************************************************************************************************************************
$$SOE
 1993-Feb-18 23:44     11 42 01.53 +06 17 48.1   16.055   7.648  2.43297956116161  -8.6019921  156.0374 /L    6.8672   0.4601264   279.06098   -32.44668         n.a.     n.a.
 1993-Feb-19 23:44     11 41 17.93 +06 19 32.8   16.036   7.634  2.42823443185140  -8.1167714  157.2125 /L    6.5466   0.4689534   279.11501   -30.53067         n.a.     n.a.
 1993-Feb-20 23:44     11 40 33.53 +06 21 20.1   16.018   7.620  2.42376869181483  -7.6256664  158.3895 /L    6.2230   0.4773793   279.15634   -28.60422         n.a.     n.a.
 1993-Feb-21 23:44     11 39 48.35 +06 23 09.7   15.999   7.605  2.41958559900721  -7.1290259  159.5681 /L    5.8966   0.4853895   279.18567   -26.66855         n.a.     n.a.
 1993-Feb-22 23:44     11 39 02.44 +06 25 01.3   15.980   7.590  2.41568820679845  -6.6272132  160.7478 /L    5.5678   0.4929704   279.20362   -24.72493         n.a.     n.a.
 1993-Feb-23 23:44     11 38 15.83 +06 26 54.8   15.961   7.575  2.41207935651622  -6.1206032  161.9281 /L    5.2367   0.5001098   279.21076   -22.77462         n.a.     n.a.
 1993-Feb-24 23:44     11 37 28.57 +06 28 49.9   15.941   7.558  2.40876167159772  -5.6095797  163.1084 /L    4.9037   0.5067965   279.20760   -20.81892         n.a.     n.a.
 1993-Feb-25 23:44     11 36 40.71 +06 30 46.4   15.921   7.542  2.40573755305361  -5.0945336  164.2880 /L    4.5691   0.5130206   279.19461   -18.85911         n.a.     n.a.
 1993-Feb-26 23:44  m  11 35 52.27 +06 32 44.1   15.901   7.524  2.40300917581222  -4.5758617  165.4660 /L    4.2333   0.5187735   279.17220   -16.89650        0.224   33.565
 1993-Feb-27 23:44  m  11 35 03.31 +06 34 42.7   15.881   7.506  2.40057848556589  -4.0539660  166.6414 /L    3.8967   0.5240479   279.14075   -14.93240        0.356   21.087
 1993-Feb-28 23:44  m  11 34 13.87 +06 36 42.0   15.860   7.488  2.39844719605629  -3.5292528  167.8127 /L    3.5599   0.5288379   279.10061   -12.96813        0.545   13.743
 1993-Mar-01 23:44  m  11 33 23.99 +06 38 41.7   15.839   7.468  2.39661678735133  -3.0021297  168.9778 /L    3.2235   0.5331392   279.05211   -11.00501        0.767    9.737
 1993-Mar-02 23:44  m  11 32 33.72 +06 40 41.7   15.817   7.448  2.39508850657121  -2.4729998  170.1341 /L    2.8886   0.5369496   278.99553   -9.044334        1.057    7.044
 1993-Mar-03 23:44  m  11 31 43.11 +06 42 41.7   15.795   7.427  2.39386337358984  -1.9422503  171.2774 /L    2.5565   0.5402685   278.93117   -7.087348        1.458    5.096
 1993-Mar-04 23:44  m  11 30 52.19 +06 44 41.5   15.772   7.405  2.39294219506811  -1.4102349  172.4011 /L    2.2292   0.5430978   278.85928   -5.135200        1.976    3.747
 1993-Mar-05 23:44  m  11 30 01.02 +06 46 40.8   15.749   7.383  2.39232558993819  -0.8772521  173.4948 /L    1.9099   0.5454409   278.78007   -3.188875        2.598    2.842
 1993-Mar-06 23:44  m  11 29 09.64 +06 48 39.5   15.726   7.360  2.39201402703349  -0.3435267  174.5398 /L    1.6041   0.5473024   278.69370   -1.249145        3.312    2.222
 1993-Mar-07 23:44  m  11 28 18.10 +06 50 37.4   15.703   7.337  2.39200787044613   0.1907966  175.5019 /L    1.3220   0.5486865   278.60024   0.6834561        4.060    1.807
 1993-Mar-08 23:44  m  11 27 26.43 +06 52 34.2   15.683   7.317  2.39230742202472   0.7256359  176.3152 /L    1.0827   0.5495960   278.49962   2.6085835        4.000    1.829
 1993-Mar-09 23:44  m  11 26 34.68 +06 54 29.7   15.669   7.302  2.39291294739915   1.2609337  176.8621 /L    0.9208   0.5500310   278.39167   4.5259853        3.126    2.336
 1993-Mar-10 23:44  m  11 25 42.90 +06 56 23.7   15.666   7.299  2.39382467593038   1.7966080  176.9938 /L    0.8801   0.5499894   278.27612   6.4353744        2.238    3.262
 1993-Mar-11 23:44  m  11 24 51.13 +06 58 16.1   15.678   7.309  2.39504277498791   2.3325152  176.6613 /T    0.9757   0.5494670   278.15263   8.3363318        1.485    4.922
 1993-Mar-12 23:44     11 23 59.41 +07 00 06.6   15.699   7.329  2.39656730856330   2.8684340  175.9789 /T    1.1743   0.5484596   278.02087   10.228269         n.a.     n.a.
 1993-Mar-13 23:44     11 23 07.80 +07 01 55.0   15.724   7.352  2.39839819349678   3.4040721  175.0912 /T    1.4333   0.5469637   277.88046   12.110449         n.a.     n.a.
 1993-Mar-14 23:44     11 22 16.33 +07 03 41.1   15.750   7.377  2.40053516321443   3.9390837  174.0908 /T    1.7251   0.5449773   277.73106   13.982035         n.a.     n.a.
 1993-Mar-15 23:44     11 21 25.06 +07 05 24.7   15.777   7.401  2.40297774290329   4.4730900  173.0267 /T    2.0351   0.5425006   277.57233   15.842148         n.a.     n.a.
 1993-Mar-16 23:44     11 20 34.02 +07 07 05.6   15.803   7.425  2.40572523533968   5.0056955  171.9250 /T    2.3553   0.5395355   277.40390   17.689910         n.a.     n.a.
 1993-Mar-17 23:44     11 19 43.27 +07 08 43.7   15.829   7.447  2.40877671443175   5.5364981  170.8000 /T    2.6815   0.5360856   277.22542   19.524466         n.a.     n.a.
 1993-Mar-18 23:44     11 18 52.85 +07 10 18.6   15.854   7.469  2.41213102336185   6.0650950  169.6601 /T    3.0109   0.5321562   277.03648   21.345003         n.a.     n.a.
